LEMUR-1                 
1 40044U 14033AL  26196.65572106  .00000803  00000+0  97956-4 0  9999
2 40044  97.7909 345.8349 0047700 346.3924  13.6002 14.85337798649691
LEMUR-2-GREENBERG       
1 42837U 17042N   26196.43877540  .00009578  00000+0  31071-3 0  9993
2 42837  97.3827  16.9516 0007218 258.2727 101.7705 15.32157296492716
LEMUR-2-ANDIS           
1 42838U 17042P   26196.46613906  .00012423  00000+0  35705-3 0  9992
2 42838  97.3678  17.2650 0007208 256.6782 103.3658 15.35931248492799
LEMUR-2-MONSON          
1 42839U 17042Q   26196.44397697  .00007794  00000+0  28139-3 0  9995
2 42839  97.4088  16.8855 0005312 243.8770 116.1924 15.28756143492482
LEMUR-2-FURIAUS         
1 42840U 17042R   26196.45186691  .00010036  00000+0  33596-3 0  9994
2 42840  97.3774  14.8562 0006060 329.0574  31.0309 15.31136141492530
LEMUR-2-PETERG          
1 42841U 17042S   26196.79310743  .00012488  00000+0  36941-3 0  9999
2 42841  97.3989  21.8945 0003336 217.3071 142.7941 15.35043275492829
LEMUR-2-DEMBITZ         
1 42842U 17042T   26196.47161280  .00008871  00000+0  29756-3 0  9992
2 42842  97.3825  17.9201 0005052 273.6984  86.3679 15.31114268492676
LEMUR-2-ZACHARY         
1 42845U 17042W   26196.56779325  .00035477  00000+0  57411-3 0  9991
2 42845  97.3566  28.8574 0002547 243.6817 116.4174 15.52741253493605
LEMUR-2-AMANDA-SVANTE   
1 48269U 21034B   26196.77651924  .00021640  00000+0  61885-3 0  9997
2 48269  97.5750 275.8503 0004652 141.7869 218.3705 15.35984089285448
LEMUR-2-SPECIAL-K       
1 48273U 21034F   26196.77829720  .00199645  00000+0  13215-2 0  9997
2 48273  97.5635 285.9220 0006279 213.1843 146.9028 15.74935345286175
LEMUR-2-EMBRIONOVIS     
1 56970U 23084AQ  26196.37513585  .00008068  00000+0  21630-3 0  9991
2 56970  97.6315 341.6746 0008324 205.3093 154.7745 15.38233354172011
LEMUR-2-DEVERILL-M-T    
1 57391U 23100F   26196.36070051  .00015150  00000+0  36873-3 0  9998
2 57391  99.4452 243.2865 0004665 296.5349  63.5413 15.41097140165588
LEMUR-2-BASS            
1 58259U 23174D   26196.73423198  .00011022  00000+0  24344-3 0  9992
2 58259  97.3849 281.8631 0007645  76.5946 283.6154 15.44006422149763
LEMUR-2-JK0903EM1407    
1 58336U 23174CJ  26196.82767244  .00016449  00000+0  26432-3 0  9999
2 58336  97.3926 288.1345 0003536  31.4434 328.7030 15.53090157150173
LEMUR-2-MJR092620       
1 58340U 23174CN  26196.77849995  .00011953  00000+0  24778-3 0  9998
2 58340  97.3978 287.3542 0005227  28.4502 331.7031 15.45877159150065
LEMUR-2-NIMBUS2000      
1 58899U 24022A   26196.52823365  .00014134  00000+0  34278-3 0  9996
2 58899  97.4076  46.9039 0008719  27.8272 332.3439 15.41126431136632
LEMUR-2-VALHALLA        
1 58900U 24022B   26196.53322804  .00010013  00000+0  24866-3 0  9996
2 58900  97.4075  46.8786 0009180  23.0529 337.1127 15.40495238136638
LEMUR-2-CAEL            
1 58903U 24022E   26196.51853263  .00011187  00000+0  26543-3 0  9992
2 58903  97.4056  47.8506 0007093   8.4188 351.7176 15.41863619136707
LEMUR-2-JOHNNYTRUONG    
1 59146U 24043BA  26196.47405403  .00029938  00000+0  33624-3 0  9990
2 59146  97.5393 349.9778 0004048  92.9286 267.2436 15.62579202132456
LEMUR-2-TOMATOKECHUP    
1 60471U 24149D   26196.76571544  .00006660  00000+0  18874-3 0  9999
2 60471  97.3798 278.8952 0003312 121.5505 238.6063 15.36590795106557
LEMUR-2-STELLA          
1 60533U 24149BT  26196.73536929  .00005975  00000+0  34817-3 0  9996
2 60533  97.6737 279.3258 0001242 118.9056 241.2299 15.12378243104812
LEMUR-2-MARHISYAM       
1 60536U 24149BW  26196.79268112  .00006358  00000+0  37630-3 0  9993
2 60536  97.6878 279.8606 0002354  68.7534 291.3947 15.11785796104800
LEMUR-2-AHMED-ASRAR     
1 60576U 24149DN  26196.79858630  .00006960  00000+0  39452-3 0  9990
2 60576  97.7005 282.0723 0001278 205.5722 154.5445 15.13314789104891
LEMUR-2-LLOYD           
1 60577U 24149DP  26196.74512564  .00005332  00000+0  33429-3 0  9999
2 60577  97.6747 277.8984 0004764  71.1619 289.0126 15.09757818104709
LEMUR-2-SQUIRRELCOMM    
1 60578U 24149DQ  26196.73457545  .00002471  00000+0  16720-3 0  9992
2 60578  97.6710 277.5606 0004065 325.2453  34.8509 15.07449934104707
LEMUR-2-SIERRINI        
1 60579U 24149DR  26196.75547602  .00005771  00000+0  34433-3 0  9996
2 60579  97.6843 279.4842 0006482  88.9265 271.2707 15.11519717104773
LEMUR-2-WILSON          
1 62694U 25009CP  26196.73719384  .00000744  00000+0  72753-4 0  9991
2 62694  97.7021 274.7014 0001987 321.9983  38.1097 14.95277647 81627
LEMUR-2-STAR-FOX        
1 62696U 25009CR  26196.19343779  .00003389  00000+0  25750-3 0  9996
2 62696  97.6910 277.6011 0002230  42.2446 317.8950 15.02840720 81760
LEMUR-2-ARIANNA         
1 62699U 25009CU  26196.79114255  .00004081  00000+0  30907-3 0  9990
2 62699  97.6850 277.9462 0002486  46.8705 313.2728 15.02848472 81855
LEMUR-2-ALISIA          
1 62706U 25009DB  26196.16427265  .00004406  00000+0  33038-3 0  9997
2 62706  97.6973 278.1493 0004295 129.2590 230.9017 15.03175424104364
