OBJECT_NAME,OBJECT_ID,EPOCH,MEAN_MOTION,ECCENTRICITY,INCLINATION,RA_OF_ASC_NODE,ARG_OF_PERICENTER,MEAN_ANOMALY,EPHEMERIS_TYPE,CLASSIFICATION_TYPE,NORAD_CAT_ID,ELEMENT_SET_NO,REV_AT_EPOCH,BSTAR,MEAN_MOTION_DOT,MEAN_MOTION_DDOT
LEMUR-1,2014-033AL,2026-07-15T15:44:14.299584,14.85337798,.00477,97.7909,345.8349,346.3924,13.6002,0,U,40044,999,64969,.97956E-4,.803E-5,0
LEMUR-2-GREENBERG,2017-042N,2026-07-15T10:31:50.194560,15.32157296,.00072185,97.3827,16.9516,258.2727,101.7705,0,U,42837,999,49271,.31070973E-3,.9578E-4,0
LEMUR-2-ANDIS,2017-042P,2026-07-15T11:11:14.414784,15.35931248,.00072081,97.3678,17.2650,256.6782,103.3658,0,U,42838,999,49279,.35705217E-3,.12423E-3,0
LEMUR-2-MONSON,2017-042Q,2026-07-15T10:39:19.610208,15.28756143,.00053127,97.4088,16.8855,243.8770,116.1924,0,U,42839,999,49248,.2813911E-3,.7794E-4,0
LEMUR-2-FURIAUS,2017-042R,2026-07-15T10:50:41.301024,15.31136141,.00060603,97.3774,14.8562,329.0574,31.0309,0,U,42840,999,49253,.33596338E-3,.10036E-3,0
LEMUR-2-PETERG,2017-042S,2026-07-15T19:02:04.481952,15.35043275,.0003336,97.3989,21.8945,217.3071,142.7941,0,U,42841,999,49282,.36941E-3,.12488E-3,0
LEMUR-2-DEMBITZ,2017-042T,2026-07-15T11:19:07.345920,15.31114268,.00050522,97.3825,17.9201,273.6984,86.3679,0,U,42842,999,49267,.29755612E-3,.8871E-4,0
LEMUR-2-ZACHARY,2017-042W,2026-07-15T13:37:37.336800,15.52741253,.0002547,97.3566,28.8574,243.6817,116.4174,0,U,42845,999,49360,.57411E-3,.35477E-3,0
LEMUR-2-AMANDA-SVANTE,2021-034B,2026-07-15T18:38:11.262336,15.35984089,.0004652,97.5750,275.8503,141.7869,218.3705,0,U,48269,999,28544,.61885E-3,.2164E-3,0
LEMUR-2-SPECIAL-K,2021-034F,2026-07-15T18:40:44.878080,15.74935345,.0006279,97.5635,285.9220,213.1843,146.9028,0,U,48273,999,28617,.13215E-2,.199645E-2,0
LEMUR-2-EMBRIONOVIS,2023-084AQ,2026-07-15T09:00:11.737440,15.38233354,.00083247,97.6315,341.6746,205.3093,154.7745,0,U,56970,999,17201,.21630377E-3,.8068E-4,0
LEMUR-2-DEVERILL-M-T,2023-100F,2026-07-15T08:39:24.524064,15.41097140,.0004665,99.4452,243.2865,296.5349,63.5413,0,U,57391,999,16558,.3687287E-3,.1515E-3,0
LEMUR-2-BASS,2023-174D,2026-07-15T17:37:17.643072,15.44006422,.0007645,97.3849,281.8631,76.5946,283.6154,0,U,58259,999,14976,.24344E-3,.11022E-3,0
LEMUR-2-JK0903EM1407,2023-174CJ,2026-07-15T19:51:50.898816,15.53090157,.0003536,97.3926,288.1345,31.4434,328.7030,0,U,58336,999,15017,.26432E-3,.16449E-3,0
LEMUR-2-MJR092620,2023-174CN,2026-07-15T18:41:02.395680,15.45877159,.0005227,97.3978,287.3542,28.4502,331.7031,0,U,58340,999,15006,.24778E-3,.11953E-3,0
LEMUR-2-NIMBUS2000,2024-022A,2026-07-15T12:40:39.387360,15.41126431,.00087191,97.4076,46.9039,27.8272,332.3439,0,U,58899,999,13663,.34278394E-3,.14134E-3,0
LEMUR-2-VALHALLA,2024-022B,2026-07-15T12:47:50.902656,15.40495238,.00091803,97.4075,46.8786,23.0529,337.1127,0,U,58900,999,13663,.24865811E-3,.10013E-3,0
LEMUR-2-CAEL,2024-022E,2026-07-15T12:26:41.219232,15.41863619,.00070935,97.4056,47.8506,8.4188,351.7176,0,U,58903,999,13670,.26542759E-3,.11187E-3,0
LEMUR-2-JOHNNYTRUONG,2024-043BA,2026-07-15T11:22:38.268192,15.62579202,.00040488,97.5393,349.9778,92.9286,267.2436,0,U,59146,999,13245,.33624039E-3,.29938E-3,0
LEMUR-2-TOMATOKECHUP,2024-149D,2026-07-15T18:22:37.814016,15.36590795,.0003312,97.3798,278.8952,121.5505,238.6063,0,U,60471,999,10655,.18874E-3,.666E-4,0
LEMUR-2-STELLA,2024-149BT,2026-07-15T17:38:55.906656,15.12378243,.0001242,97.6737,279.3258,118.9056,241.2299,0,U,60533,999,10481,.34817E-3,.5975E-4,0
LEMUR-2-MARHISYAM,2024-149BW,2026-07-15T19:01:27.648768,15.11785796,.0002354,97.6878,279.8606,68.7534,291.3947,0,U,60536,999,10480,.3763E-3,.6358E-4,0
LEMUR-2-AHMED-ASRAR,2024-149DN,2026-07-15T19:09:57.856320,15.13314789,.0001278,97.7005,282.0723,205.5722,154.5445,0,U,60576,999,10489,.39452E-3,.696E-4,0
LEMUR-2-LLOYD,2024-149DP,2026-07-15T17:52:58.855296,15.09757818,.0004764,97.6747,277.8984,71.1619,289.0126,0,U,60577,999,10470,.33429E-3,.5332E-4,0
LEMUR-2-SQUIRRELCOMM,2024-149DQ,2026-07-15T17:37:47.318880,15.07449934,.0004065,97.6710,277.5606,325.2453,34.8509,0,U,60578,999,10470,.1672E-3,.2471E-4,0
LEMUR-2-SIERRINI,2024-149DR,2026-07-15T18:07:53.128128,15.11519717,.0006482,97.6843,279.4842,88.9265,271.2707,0,U,60579,999,10477,.34433E-3,.5771E-4,0
LEMUR-2-WILSON,2025-009CP,2026-07-15T17:41:33.547776,14.95277647,.0001987,97.7021,274.7014,321.9983,38.1097,0,U,62694,999,8162,.72753E-4,.744E-5,0
LEMUR-2-STAR-FOX,2025-009CR,2026-07-15T04:38:33.025056,15.02840720,.00022307,97.6910,277.6011,42.2446,317.8950,0,U,62696,999,8176,.25750175E-3,.3389E-4,0
LEMUR-2-ARIANNA,2025-009CU,2026-07-15T18:59:14.716320,15.02848472,.0002486,97.6850,277.9462,46.8705,313.2728,0,U,62699,999,8185,.30907E-3,.4081E-4,0
LEMUR-2-ALISIA,2025-009DB,2026-07-15T03:56:33.156960,15.03175424,.00042957,97.6973,278.1493,129.2590,230.9017,0,U,62706,999,10436,.33037554E-3,.4406E-4,0
